CCSDS_OMM_VERS,COMMENT,CREATION_DATE,ORIGINATOR,OBJECT_NAME,OBJECT_ID,CENTER_NAME,REF_FRAME,TIME_SYSTEM,MEAN_ELEMENT_THEORY,EPOCH,MEAN_MOTION,ECCENTRICITY,INCLINATION,RA_OF_ASC_NODE,ARG_OF_PERICENTER,MEAN_ANOMALY,EPHEMERIS_TYPE,CLASSIFICATION_TYPE,NORAD_CAT_ID,ELEMENT_SET_NO,REV_AT_EPOCH,BSTAR,MEAN_MOTION_DOT,MEAN_MOTION_DDOT,SEMIMAJOR_AXIS,PERIOD,APOAPSIS,PERIAPSIS,OBJECT_TYPE,RCS_SIZE,COUNTRY_CODE,LAUNCH_DATE,SITE,DECAY_DATE,FILE,GP_ID,TLE_LINE0,TLE_LINE1,TLE_LINE2
2,GENERATED VIA SPACE-TRACK.ORG API,2009-12-08T15:37:00,18 SPCS,LEASAT 5,1990-002B,EARTH,TEME,UTC,SGP4,2009-12-08T15:50:26.908224,1.00268141,5.94e-05,8.6184,34.3575,255.1448,125.6577,0,U,20410,999,5819,0.0001,-3.12e-06,0,42165.78,1436.149,35790.15,35785.14,PAYLOAD,LARGE,US,1990-01-09,AFETR,,810830,74364312,0 LEASAT 5,1 20410U 90002B   09342.66003366 -.00000312  00000-0  10000-3 0  9997,2 20410 008.6184 034.3575 0000594 255.1448 125.6577 01.00268141 58199
2,GENERATED VIA SPACE-TRACK.ORG API,2009-12-09T15:37:00,18 SPCS,LEASAT 5,1990-002B,EARTH,TEME,UTC,SGP4,2009-12-09T18:50:37.710816,1.00267726,7.14e-05,8.6205,34.3506,281.6157,145.3297,0,U,20410,999,5820,0.0001,-3.12e-06,0,42165.896,1436.155,35790.772,35784.751,PAYLOAD,LARGE,US,1990-01-09,AFETR,,811307,74379006,0 LEASAT 5,1 20410U 90002B   09343.78515869 -.00000312  00000-0  10000-3 0  9997,2 20410 008.6205 034.3506 0000714 281.6157 145.3297 01.00267726 58200
2,GENERATED VIA SPACE-TRACK.ORG API,2009-12-10T23:32:49,18 SPCS,LEASAT 5,1990-002B,EARTH,TEME,UTC,SGP4,2009-12-11T00:50:07.609055,1.00267559,4.29e-05,8.622,34.3393,279.7217,238.33,0,U,20410,999,5821,0.0001,-3.11e-06,0,42165.943,1436.157,35789.617,35785.999,PAYLOAD,LARGE,US,1990-01-09,AFETR,,811932,74396051,0 LEASAT 5,1 20410U 90002B   09345.03481029 -.00000311  00000-0  10000-3 0  9996,2 20410 008.6220 034.3393 0000429 279.7217 238.3300 01.00267559 58212
2,GENERATED VIA SPACE-TRACK.ORG API,2009-12-13T12:45:39,18 SPCS,LEASAT 5,1990-002B,EARTH,TEME,UTC,SGP4,2009-12-11T00:50:52.608768,1.00267571,4.04e-05,8.622,34.34,281.5957,236.644,0,U,20410,999,5821,0.0001,-3.12e-06,0,42165.94,1436.157,35789.508,35786.101,PAYLOAD,LARGE,US,1990-01-09,AFETR,,812871,74431984,0 LEASAT 5,1 20410U 90002B   09345.03533112 -.00000312 +00000-0 +10000-3 0  9998,2 20410 008.6220 034.3400 0000404 281.5957 236.6440 01.00267571058216
2,GENERATED VIA SPACE-TRACK.ORG API,2009-12-15T17:52:15,18 SPCS,LEASAT 5,1990-002B,EARTH,TEME,UTC,SGP4,2009-12-15T18:37:57.800352,1.00273282,9.58e-05,8.6316,34.3173,337.7513,92.01,0,U,20410,999,5826,0.0001,-3.11e-06,0,42164.339,1436.075,35790.243,35782.164,PAYLOAD,LARGE,US,1990-01-09,AFETR,,813980,74467142,0 LEASAT 5,1 20410U 90002B   09349.77636343 -.00000311  00000-0  10000-3 0  9992,2 20410 008.6316 034.3173 0000958 337.7513 092.0100 01.00273282 58263
2,GENERATED VIA SPACE-TRACK.ORG API,2009-12-18T21:27:35,18 SPCS,LEASAT 5,1990-002B,EARTH,TEME,UTC,SGP4,2009-12-17T22:09:57.455424,1.00272261,0.0001028,8.6365,34.3097,123.7756,1.1283,0,U,20410,999,5828,0.0001,-3.08e-06,0,42164.625,1436.09,35790.824,35782.155,PAYLOAD,LARGE,US,1990-01-09,AFETR,,815678,74511812,0 LEASAT 5,1 20410U 90002B   09351.92358166 -.00000308  00000-0  10000-3 0  9992,2 20410 008.6365 034.3097 0001028 123.7756 001.1283 01.00272261 58284
2,GENERATED VIA SPACE-TRACK.ORG API,2009-12-21T09:12:14,18 SPCS,LEASAT 5,1990-002B,EARTH,TEME,UTC,SGP4,2009-12-20T22:14:15.929663,1.00271268,0.0002064,8.6435,34.288,132.6291,356.3405,0,U,20410,999,5831,0.0001,-3.02e-06,0,42164.903,1436.104,35795.471,35778.066,PAYLOAD,LARGE,US,1990-01-09,AFETR,,816716,74554735,0 LEASAT 5,1 20410U 90002B   09354.92657326 -.00000302  00000-0  10000-3 0  9999,2 20410 008.6435 034.2880 0002064 132.6291 356.3405 01.00271268 58316
2,GENERATED VIA SPACE-TRACK.ORG API,2009-12-23T18:21:26,18 SPCS,LEASAT 5,1990-002B,EARTH,TEME,UTC,SGP4,2009-12-22T20:06:32.732639,1.0027006,4.79e-05,8.6431,34.2647,290.1542,168.7651,0,U,20410,999,5833,0.0001,-2.97e-06,0,42165.242,1436.121,35789.127,35785.087,PAYLOAD,LARGE,US,1990-01-09,AFETR,,818133,74588181,0 LEASAT 5,1 20410U 90002B   09356.83787885 -.00000297  00000-0  10000-3 0  9998,2 20410 008.6431 034.2647 0000479 290.1542 168.7651 01.00270060 58339
2,GENERATED VIA SPACE-TRACK.ORG API,2009-12-27T16:06:57,18 SPCS,LEASAT 5,1990-002B,EARTH,TEME,UTC,SGP4,2009-12-27T16:59:55.550111,1.00268001,4.79e-05,8.6513,34.2337,290.2814,126.7596,0,U,20410,999,5838,0.0001,-2.95e-06,0,42165.819,1436.151,35789.704,35785.664,PAYLOAD,LARGE,US,1990-01-09,AFETR,,819655,74648208,0 LEASAT 5,1 20410U 90002B   09361.70828183 -.00000295  00000-0  10000-3 0  9995,2 20410 008.6513 034.2337 0000479 290.2814 126.7596 01.00268001 58388
2,GENERATED VIA SPACE-TRACK.ORG API,2010-01-04T08:46:25,18 SPCS,LEASAT 5,1990-002B,EARTH,TEME,UTC,SGP4,2010-01-02T14:02:26.649024,1.00270636,2.18e-05,8.6611,34.2321,31.7843,346.745,0,U,20410,999,5844,0.0001,-3.13e-06,0,42165.081,1436.113,35787.865,35786.026,PAYLOAD,LARGE,US,1990-01-09,AFETR,,824064,75858998,0 LEASAT 5,1 20410U 90002B   10002.58503066 -.00000313  00000-0  10000-3 0  9996,2 20410 008.6611 034.2321 0000218 031.7843 346.7450 01.00270636 58448
2,GENERATED VIA SPACE-TRACK.ORG API,2010-01-06T10:20:07,18 SPCS,LEASAT 5,1990-002B,EARTH,TEME,UTC,SGP4,2010-01-06T04:37:39.035423,1.00267306,3.69e-05,8.6514,34.1631,332.5692,268.3287,0,U,20410,999,5847,0.0001,-3.15e-06,0,42166.014,1436.161,35789.435,35786.323,PAYLOAD,LARGE,US,1990-01-09,AFETR,,825072,75887080,0 LEASAT 5,1 20410U 90002B   10006.19281291 -.00000315  00000-0  10000-3 0  9992,2 20410 008.6514 034.1631 0000369 332.5692 268.3287 01.00267306 58474
2,GENERATED VIA SPACE-TRACK.ORG API,2010-01-06T10:23:05,18 SPCS,LEASAT 5,1990-002B,EARTH,TEME,UTC,SGP4,2010-01-06T04:37:39.035423,1.00267582,1.99e-05,8.6625,34.1747,326.216,274.6708,0,U,20410,999,5847,0.0001,-3.15e-06,0,42165.937,1436.157,35788.641,35786.963,PAYLOAD,LARGE,US,1990-01-09,AFETR,,825073,75887081,0 LEASAT 5,1 20410U 90002B   10006.19281291 -.00000315  00000-0  10000-3 0  9992,2 20410 008.6625 034.1747 0000199 326.2160 274.6708 01.00267582 58470
2,GENERATED VIA SPACE-TRACK.ORG API,2010-01-11T00:07:09,18 SPCS,LEASAT 5,1990-002B,EARTH,TEME,UTC,SGP4,2010-01-10T22:14:34.273247,1.00266281,4e-05,8.6714,34.1634,9.7203,140.0047,0,U,20410,999,5852,0.0001,-3.14e-06,0,42166.301,1436.175,35789.853,35786.48,PAYLOAD,LARGE,US,1990-01-09,AFETR,,827251,75949238,0 LEASAT 5,1 20410U 90002B   10010.92678557 -.00000314  00000-0  10000-3 0  9992,2 20410 008.6714 034.1634 0000400 009.7203 140.0047 01.00266281 58523
2,GENERATED VIA SPACE-TRACK.ORG API,2010-01-11T23:33:12,18 SPCS,LEASAT 5,1990-002B,EARTH,TEME,UTC,SGP4,2010-01-11T15:12:06.664607,1.0026649,0.0001429,8.6675,34.1629,344.5457,60.2554,0,U,20410,999,5853,0.0001,-3.14e-06,0,42166.243,1436.172,35794.133,35782.082,PAYLOAD,LARGE,US,1990-01-09,AFETR,,827893,75963015,0 LEASAT 5,1 20410U 90002B   10011.63341047 -.00000314  00000-0  10000-3 0  9992,2 20410 008.6675 034.1629 0001429 344.5457 060.2554 01.00266490 58535
2,GENERATED VIA SPACE-TRACK.ORG API,2010-01-13T15:36:04,18 SPCS,LEASAT 5,1990-002B,EARTH,TEME,UTC,SGP4,2010-01-13T19:40:29.944991,1.00266255,9.57e-05,8.6773,34.1715,355.635,118.3746,0,U,20410,999,5855,0.0001,-3.12e-06,0,42166.309,1436.176,35792.209,35784.138,PAYLOAD,LARGE,US,1990-01-09,AFETR,,828762,75989456,0 LEASAT 5,1 20410U 90002B   10013.81979103 -.00000312  00000-0  10000-3 0  9992,2 20410 008.6773 034.1715 0000957 355.6350 118.3746 01.00266255 58559
2,GENERATED VIA SPACE-TRACK.ORG API,2010-01-15T23:39:26,18 SPCS,LEASAT 5,1990-002B,EARTH,TEME,UTC,SGP4,2010-01-15T23:10:56.694143,1.00265397,9.18e-05,8.6804,34.1462,355.8744,172.8387,0,U,20410,999,5857,0.0001,-3.07e-06,0,42166.549,1436.188,35792.285,35784.543,PAYLOAD,LARGE,US,1990-01-09,AFETR,,829995,76020742,0 LEASAT 5,1 20410U 90002B   10015.96593396 -.00000307  00000-0  10000-3 0  9990,2 20410 008.6804 034.1462 0000918 355.8744 172.8387 01.00265397 58573
2,GENERATED VIA SPACE-TRACK.ORG API,2010-01-17T07:50:54,18 SPCS,LEASAT 5,1990-002B,EARTH,TEME,UTC,SGP4,2010-01-16T17:07:25.027968,1.00265308,0.0001038,8.6837,34.1408,352.7756,85.7821,0,U,20410,999,5858,0.0001,-3.06e-06,0,42166.574,1436.189,35792.816,35784.062,PAYLOAD,LARGE,US,1990-01-09,AFETR,,830519,76041564,0 LEASAT 5,1 20410U 90002B   10016.71348412 -.00000306 +00000-0 +10000-3 0  9990,2 20410 008.6837 034.1408 0001038 352.7756 085.7821 01.00265308058580
2,GENERATED VIA SPACE-TRACK.ORG API,2010-01-17T15:36:35,18 SPCS,LEASAT 5,1990-002B,EARTH,TEME,UTC,SGP4,2010-01-17T18:17:17.053152,1.00264859,0.0001195,8.6859,34.136,349.878,107.1571,0,U,20410,999,5859,0.0001,-3.03e-06,0,42166.7,1436.196,35793.604,35783.526,PAYLOAD,LARGE,US,1990-01-09,AFETR,,830669,76047936,0 LEASAT 5,1 20410U 90002B   10017.76200293 -.00000303  00000-0  10000-3 0  9997,2 20410 008.6859 034.1360 0001195 349.8780 107.1571 01.00264859 58591
2,GENERATED VIA SPACE-TRACK.ORG API,2010-01-19T10:22:02,18 SPCS,LEASAT 5,1990-002B,EARTH,TEME,UTC,SGP4,2010-01-17T22:58:43.923648,1.00264806,0.0001145,8.6862,34.1277,350.2229,177.3708,0,U,20410,999,5859,0.0001,-3.03e-06,0,42166.715,1436.196,35793.408,35783.752,PAYLOAD,LARGE,US,1990-01-09,AFETR,,831483,76072655,0 LEASAT 5,1 20410U 90002B   10017.95745282 -.00000303 +00000-0 +10000-3 0  9990,2 20410 008.6862 034.1277 0001145 350.2229 177.3708 01.00264806058594
2,GENERATED VIA SPACE-TRACK.ORG API,2010-01-20T15:37:16,18 SPCS,LEASAT 5,1990-002B,EARTH,TEME,UTC,SGP4,2010-01-20T14:46:50.678976,1.0026369,0.0001132,8.6911,34.1073,349.7944,57.3924,0,U,20410,999,5862,0.0001,-2.97e-06,0,42167.028,1436.212,35793.666,35784.12,PAYLOAD,LARGE,US,1990-01-09,AFETR,,832145,76092302,0 LEASAT 5,1 20410U 90002B   10020.61586434 -.00000297  00000-0  10000-3 0  9991,2 20410 008.6911 034.1073 0001132 349.7944 057.3924 01.00263690 58627
